{"type": "FeatureCollection", "features": [ {"type": "Feature", "properties": {"norad_id": 34375, "name": "IRIDIUM 33 DEB", "group": "iridium-33-debris", "lat": -32.321274096210026, "lon": 179.58164398342367, "alt_km": 904.13685672272, "timestamp": "2025-12-14T20:40:32.157599+00:00", "meta": {"OBJECT_NAME": "IRIDIUM 33 DEB", "OBJECT_ID": "1997-051FT", "EPOCH": "2025-12-13T19:31:13.647360", "MEAN_MOTION": 14.17994581, "ECCENTRICITY": 0.01033715, "INCLINATION": 86.4325, "RA_OF_ASC_NODE": 182.2662, "ARG_OF_PERICENTER": 123.3571, "MEAN_ANOMALY": 257.7603, "EPHEMERIS_TYPE": 0, "CLASSIFICATION_TYPE": "U", "NORAD_CAT_ID": 34375, "ELEMENT_SET_NO": 999, "REV_AT_EPOCH": 86727, "BSTAR": 0.00056520957, "MEAN_MOTION_DOT": 1.239e-05, "MEAN_MOTION_DDOT": 0}, "tle": {"line1": "1 34375U 97051FT  25347.81335240  .00001239  00000+0  56521-3 0  9997", "line2": "2 34375  86.4325 182.2662 0103371 123.3571 257.7603 14.17994581867275"}}, "geometry": {"type": "Point", "coordinates": [179.58164398342367, -32.321274096210026]}}, {"type": "Feature", "properties": {"norad_id": 34376, "name": "IRIDIUM 33 DEB", "group": "iridium-33-debris", "lat": -39.140230863725165, "lon": 2.5662407292478506, "alt_km": 709.6485666864792, "timestamp": "2025-12-14T20:40:32.157610+00:00", "meta": {"OBJECT_NAME": "IRIDIUM 33 DEB", "OBJECT_ID": "1997-051FU", "EPOCH": "2025-12-14T07:43:11.248608", "MEAN_MOTION": 14.62599257, "ECCENTRICITY": 0.00273645, "INCLINATION": 86.2986, "RA_OF_ASC_NODE": 5.8288, "ARG_OF_PERICENTER": 161.3609, "MEAN_ANOMALY": 198.8611, "EPHEMERIS_TYPE": 0, "CLASSIFICATION_TYPE": "U", "NORAD_CAT_ID": 34376, "ELEMENT_SET_NO": 999, "REV_AT_EPOCH": 88030, "BSTAR": 0.0015257547, "MEAN_MOTION_DOT": 7.815e-05, "MEAN_MOTION_DDOT": 0}, "tle": {"line1": "1 34376U 97051FU  25348.32165797  .00007815  00000+0  15258-2 0  9990", "line2": "2 34376  86.2986   5.8288 0027364 161.3609 198.8611 14.62599257880306"}}, "geometry": {"type": "Point", "coordinates": [2.5662407292478506, -39.140230863725165]}}, {"type": "Feature", "properties": {"norad_id": 34486, "name": "IRIDIUM 33 DEB", "group": "iridium-33-debris", "lat": 70.71297810505607, "lon": 21.428720930912714, "alt_km": 564.9685084549455, "timestamp": "2025-12-14T20:40:32.157621+00:00", "meta": {"OBJECT_NAME": "IRIDIUM 33 DEB", "OBJECT_ID": "1997-051GB", "EPOCH": "2025-12-14T07:34:38.832672", "MEAN_MOTION": 14.95900422, "ECCENTRICITY": 0.00137992, "INCLINATION": 86.3937, "RA_OF_ASC_NODE": 11.2977, "ARG_OF_PERICENTER": 108.87, "MEAN_ANOMALY": 265.2094, "EPHEMERIS_TYPE": 0, "CLASSIFICATION_TYPE": "U", "NORAD_CAT_ID": 34486, "ELEMENT_SET_NO": 999, "REV_AT_EPOCH": 89010, "BSTAR": 0.0022000778, "MEAN_MOTION_DOT": 0.00024735, "MEAN_MOTION_DDOT": 0}, "tle": {"line1": "1 34486U 97051GB  25348.31572723  .00024735  00000+0  22001-2 0  9996", "line2": "2 34486  86.3937  11.2977 0013799 108.8700 265.2094 14.95900422890105"}}, "geometry": {"type": "Point", "coordinates": [21.428720930912714, 70.71297810505607]}}, {"type": "Feature", "properties": {"norad_id": 34487, "name": "IRIDIUM 33 DEB", "group": "iridium-33-debris", "lat": 44.38890048639125, "lon": 15.052813857428484, "alt_km": 738.8636884358993, "timestamp": "2025-12-14T20:40:32.157631+00:00", "meta": {"OBJECT_NAME": "IRIDIUM 33 DEB", "OBJECT_ID": "1997-051GC", "EPOCH": "2025-12-14T02:25:11.026848", "MEAN_MOTION": 14.43218244, "ECCENTRICITY": 0.00328516, "INCLINATION": 86.3436, "RA_OF_ASC_NODE": 11.7914, "ARG_OF_PERICENTER": 124.1051, "MEAN_ANOMALY": 291.2794, "EPHEMERIS_TYPE": 0, "CLASSIFICATION_TYPE": "U", "NORAD_CAT_ID": 34487, "ELEMENT_SET_NO": 999, "REV_AT_EPOCH": 88268, "BSTAR": 0.00024156474, "MEAN_MOTION_DOT": 8.38e-06, "MEAN_MOTION_DDOT": 0}, "tle": {"line1": "1 34487U 97051GC  25348.10082207  .00000838  00000+0  24156-3 0  9999", "line2": "2 34487  86.3436  11.7914 0032851 124.1051 291.2794 14.43218244882683"}}, "geometry": {"type": "Point", "coordinates": [15.052813857428484, 44.38890048639125]}}, {"type": "Feature", "properties": {"norad_id": 34488, "name": "IRIDIUM 33 DEB", "group": "iridium-33-debris", "lat": -47.153284993310336, "lon": -59.21320227896618, "alt_km": 483.0337331502933, "timestamp": "2025-12-14T20:40:32.157642+00:00", "meta": {"OBJECT_NAME": "IRIDIUM 33 DEB", "OBJECT_ID": "1997-051GD", "EPOCH": "2025-12-13T21:20:06.708192", "MEAN_MOTION": 15.29804687, "ECCENTRICITY": 0.00127774, "INCLINATION": 86.3232, "RA_OF_ASC_NODE": 305.2445, "ARG_OF_PERICENTER": 49.9187, "MEAN_ANOMALY": 310.3179, "EPHEMERIS_TYPE": 0, "CLASSIFICATION_TYPE": "U", "NORAD_CAT_ID": 34488, "ELEMENT_SET_NO": 999, "REV_AT_EPOCH": 89257, "BSTAR": 0.0047409619, "MEAN_MOTION_DOT": 0.00139416, "MEAN_MOTION_DDOT": 0}, "tle": {"line1": "1 34488U 97051GD  25347.88896653  .00139416  00000+0  47410-2 0  9994", "line2": "2 34488  86.3232 305.2445 0012777  49.9187 310.3179 15.29804687892573"}}, "geometry": {"type": "Point", "coordinates": [-59.21320227896618, -47.153284993310336]}}, {"type": "Feature", "properties": {"norad_id": 34492, "name": "IRIDIUM 33 DEB", "group": "iridium-33-debris", "lat": 3.0746097631962876, "lon": -26.03874137626806, "alt_km": 897.6872215127032, "timestamp": "2025-12-14T20:40:32.157652+00:00", "meta": {"OBJECT_NAME": "IRIDIUM 33 DEB", "OBJECT_ID": "1997-051GH", "EPOCH": "2025-12-14T05:35:02.651712", "MEAN_MOTION": 14.25773186, "ECCENTRICITY": 0.01889467, "INCLINATION": 86.4719, "RA_OF_ASC_NODE": 334.0254, "ARG_OF_PERICENTER": 233.3245, "MEAN_ANOMALY": 142.6912, "EPHEMERIS_TYPE": 0, "CLASSIFICATION_TYPE": "U", "NORAD_CAT_ID": 34492, "ELEMENT_SET_NO": 999, "REV_AT_EPOCH": 85080, "BSTAR": 0.00441868, "MEAN_MOTION_DOT": 0.00012689, "MEAN_MOTION_DDOT": 0}, "tle": {"line1": "1 34492U 97051GH  25348.23266958  .00012689  00000+0  44187-2 0  9998", "line2": "2 34492  86.4719 334.0254 0188946 233.3245 142.6912 14.25773186850808"}}, "geometry": {"type": "Point", "coordinates": [-26.03874137626806, 3.0746097631962876]}}, {"type": "Feature", "properties": {"norad_id": 34497, "name": "IRIDIUM 33 DEB", "group": "iridium-33-debris", "lat": -71.66167187486579, "lon": -117.17906294612919, "alt_km": 798.062483202847, "timestamp": "2025-12-14T20:40:32.157662+00:00", "meta": {"OBJECT_NAME": "IRIDIUM 33 DEB", "OBJECT_ID": "1997-051GN", "EPOCH": "2025-12-14T04:36:28.717920", "MEAN_MOTION": 14.27459582, "ECCENTRICITY": 0.00786328, "INCLINATION": 86.278, "RA_OF_ASC_NODE": 51.7811, "ARG_OF_PERICENTER": 334.8541, "MEAN_ANOMALY": 79.7978, "EPHEMERIS_TYPE": 0, "CLASSIFICATION_TYPE": "U", "NORAD_CAT_ID": 34497, "ELEMENT_SET_NO": 999, "REV_AT_EPOCH": 86904, "BSTAR": 0.00073972606, "MEAN_MOTION_DOT": 1.894e-05, "MEAN_MOTION_DDOT": 0}, "tle": {"line1": "1 34497U 97051GN  25348.19199905  .00001894  00000+0  73973-3 0  9997", "line2": "2 34497  86.2780  51.7811 0078632 334.8541  79.7978 14.27459582869048"}}, "geometry": {"type": "Point", "coordinates": [-117.17906294612919, -71.66167187486579]}}, {"type": "Feature", "properties": {"norad_id": 34508, "name": "IRIDIUM 33 DEB", "group": "iridium-33-debris", "lat": 45.529181638243855, "lon": -81.96472989343549, "alt_km": 719.5058601516848, "timestamp": "2025-12-14T20:40:32.157673+00:00", "meta": {"OBJECT_NAME": "IRIDIUM 33 DEB", "OBJECT_ID": "1997-051GZ", "EPOCH": "2025-12-14T08:21:56.475648", "MEAN_MOTION": 14.3844617, "ECCENTRICITY": 0.0066199, "INCLINATION": 86.3696, "RA_OF_ASC_NODE": 101.9608, "ARG_OF_PERICENTER": 167.7795, "MEAN_ANOMALY": 192.5028, "EPHEMERIS_TYPE": 0, "CLASSIFICATION_TYPE": "U", "NORAD_CAT_ID": 34508, "ELEMENT_SET_NO": 999, "REV_AT_EPOCH": 87332, "BSTAR": 0.001521523, "MEAN_MOTION_DOT": 4.781e-05, "MEAN_MOTION_DDOT": 0}, "tle": {"line1": "1 34508U 97051GZ  25348.34857032  .00004781  00000+0  15215-2 0  9991", "line2": "2 34508  86.3696 101.9608 0066199 167.7795 192.5028 14.38446170873326"}}, "geometry": {"type": "Point", "coordinates": [-81.96472989343549, 45.529181638243855]}}, {"type": "Feature", "properties": {"norad_id": 34521, "name": "IRIDIUM 33 DEB", "group": "iridium-33-debris", "lat": 37.179839455908905, "lon": -153.13766028311568, "alt_km": 679.1017398428203, "timestamp": "2025-12-14T20:40:32.157684+00:00", "meta": {"OBJECT_NAME": "IRIDIUM 33 DEB", "OBJECT_ID": "1997-051HN", "EPOCH": "2025-12-14T03:36:53.409888", "MEAN_MOTION": 14.63384797, "ECCENTRICITY": 0.00017014, "INCLINATION": 86.3804, "RA_OF_ASC_NODE": 29.9271, "ARG_OF_PERICENTER": 206.4269, "MEAN_ANOMALY": 153.6857, "EPHEMERIS_TYPE": 0, "CLASSIFICATION_TYPE": "U", "NORAD_CAT_ID": 34521, "ELEMENT_SET_NO": 999, "REV_AT_EPOCH": 88493, "BSTAR": 0.00094367192, "MEAN_MOTION_DOT": 4.898e-05, "MEAN_MOTION_DDOT": 0}, "tle": {"line1": "1 34521U 97051HN  25348.15061817  .00004898  00000+0  94367-3 0  9998", "line2": "2 34521  86.3804  29.9271 0001701 206.4269 153.6857 14.63384797884933"}}, "geometry": {"type": "Point", "coordinates": [-153.13766028311568, 37.179839455908905]}}, {"type": "Feature", "properties": {"norad_id": 34525, "name": "IRIDIUM 33 DEB", "group": "iridium-33-debris", "lat": 14.230461226739996, "lon": -134.9833517307764, "alt_km": 748.8126905213567, "timestamp": "2025-12-14T20:40:32.157694+00:00", "meta": {"OBJECT_NAME": "IRIDIUM 33 DEB", "OBJECT_ID": "1997-051HS", "EPOCH": "2025-12-14T05:15:43.852320", "MEAN_MOTION": 14.42909796, "ECCENTRICITY": 0.00065975, "INCLINATION": 86.3729, "RA_OF_ASC_NODE": 46.2124, "ARG_OF_PERICENTER": 91.4794, "MEAN_ANOMALY": 340.1709, "EPHEMERIS_TYPE": 0, "CLASSIFICATION_TYPE": "U", "NORAD_CAT_ID": 34525, "ELEMENT_SET_NO": 999, "REV_AT_EPOCH": 88109, "BSTAR": 0.00046290331, "MEAN_MOTION_DOT": 1.566e-05, "MEAN_MOTION_DDOT": 0}, "tle": {"line1": "1 34525U 97051HS  25348.21925755  .00001566  00000+0  46290-3 0  9990", "line2": "2 34525  86.3729  46.2124 0006597  91.4794 340.1709 14.42909796881097"}}, "geometry": {"type": "Point", "coordinates": [-134.9833517307764, 14.230461226739996]}}]}